0 DELTA 1 DEB
1 09978U 73086GH  13287.12097436 -.00000051  00000-0 -59455-4 0  7954
2 09978 101.9230 343.4431 0054453 222.2476 165.1492 12.32743421722524
0 DELTA 1 DEB
1 09978U 73086GH  13289.74004863 -.00000062  00000-0 -14992-3 0  7965
2 09978 101.9225 345.9729 0054484 217.4149 268.2889 12.32743618722840
0 DELTA 1 DEB
1 09978U 73086GH  13293.12637243 -.00000046  00000-0 -25367-4 0  7978
2 09978 101.9216 349.2433 0054529 211.2159 176.3466 12.32743944723261
0 DELTA 1 DEB
1 09978U 73086GH  13296.13636450 -.00000050  00000-0 -52449-4 0  7988
2 09978 101.9218 352.1501 0054500 205.6662 214.3338 12.32744058723636
